[{"OBJECT_NAME":"SUPERVIEW NEO-2 OBJECT B","OBJECT_ID":"2026-062B","EPOCH":"2026-03-31T17:19:08.069952","MEAN_MOTION":15.2058506,"ECCENTRICITY":0.00089524,"INCLINATION":97.4347,"RA_OF_ASC_NODE":99.1253,"ARG_OF_PERICENTER":250.4427,"MEAN_ANOMALY":109.5842,"EPHEMERIS_TYPE":0,"CLASSIFICATION_TYPE":"U","NORAD_CAT_ID":68378,"ELEMENT_SET_NO":999,"REV_AT_EPOCH":88,"BSTAR":0.00019790811,"MEAN_MOTION_DOT":4.27e-5,"MEAN_MOTION_DDOT":0},{"OBJECT_NAME":"CZ-2D R/B","OBJECT_ID":"2026-062C","EPOCH":"2026-04-01T04:54:51.186240","MEAN_MOTION":15.3111921,"ECCENTRICITY":0.005316,"INCLINATION":97.4979,"RA_OF_ASC_NODE":99.5481,"ARG_OF_PERICENTER":39.9211,"MEAN_ANOMALY":320.592,"EPHEMERIS_TYPE":0,"CLASSIFICATION_TYPE":"U","NORAD_CAT_ID":68379,"ELEMENT_SET_NO":999,"REV_AT_EPOCH":96,"BSTAR":0.00044638,"MEAN_MOTION_DOT":0.00013948,"MEAN_MOTION_DDOT":0},{"OBJECT_NAME":"LPNTSAT-001 (IOD-1)","OBJECT_ID":"2026-065A","EPOCH":"2026-03-31T15:25:41.495232","MEAN_MOTION":15.18232295,"ECCENTRICITY":0.0015363,"INCLINATION":97.4133,"RA_OF_ASC_NODE":332.7616,"ARG_OF_PERICENTER":275.1265,"MEAN_ANOMALY":84.8216,"EPHEMERIS_TYPE":0,"CLASSIFICATION_TYPE":"U","NORAD_CAT_ID":68408,"ELEMENT_SET_NO":999,"REV_AT_EPOCH":49,"BSTAR":0.00019555,"MEAN_MOTION_DOT":3.946e-5,"MEAN_MOTION_DDOT":0},{"OBJECT_NAME":"LPNTSAT-002 (IOD-2)","OBJECT_ID":"2026-065B","EPOCH":"2026-03-30T22:01:49.710144","MEAN_MOTION":15.18186279,"ECCENTRICITY":0.0012511,"INCLINATION":97.4122,"RA_OF_ASC_NODE":332.0512,"ARG_OF_PERICENTER":274.1697,"MEAN_ANOMALY":85.8107,"EPHEMERIS_TYPE":0,"CLASSIFICATION_TYPE":"U","NORAD_CAT_ID":68409,"ELEMENT_SET_NO":999,"REV_AT_EPOCH":36,"BSTAR":8.4452e-5,"MEAN_MOTION_DOT":1.661e-5,"MEAN_MOTION_DDOT":0},{"OBJECT_NAME":"ELECTRON R/B","OBJECT_ID":"2026-065C","EPOCH":"2026-03-29T17:50:42.810720","MEAN_MOTION":15.83047135,"ECCENTRICITY":0.02280831,"INCLINATION":97.3942,"RA_OF_ASC_NODE":331.0573,"ARG_OF_PERICENTER":205.9229,"MEAN_ANOMALY":153.0475,"EPHEMERIS_TYPE":0,"CLASSIFICATION_TYPE":"U","NORAD_CAT_ID":68410,"ELEMENT_SET_NO":999,"REV_AT_EPOCH":15,"BSTAR":0.00025022275,"MEAN_MOTION_DOT":0.00479178,"MEAN_MOTION_DDOT":2.264235e-6},{"OBJECT_NAME":"ELECTRON KICK STAGE R/B","OBJECT_ID":"2026-065D","EPOCH":"2026-03-30T16:54:54.803808","MEAN_MOTION":15.75328689,"ECCENTRICITY":0.02045106,"INCLINATION":97.4169,"RA_OF_ASC_NODE":332.0388,"ARG_OF_PERICENTER":25.2779,"MEAN_ANOMALY":335.8323,"EPHEMERIS_TYPE":0,"CLASSIFICATION_TYPE":"U","NORAD_CAT_ID":68411,"ELEMENT_SET_NO":999,"REV_AT_EPOCH":37,"BSTAR":0.00032519468,"MEAN_MOTION_DOT":0.00204615,"MEAN_MOTION_DDOT":2.15409e-6},{"OBJECT_NAME":"2026-066A","OBJECT_ID":"2026-066A","EPOCH":"2026-03-31T20:39:16.914816","MEAN_MOTION":15.2982482,"ECCENTRICITY":0.02060898,"INCLINATION":84.9606,"RA_OF_ASC_NODE":276.9718,"ARG_OF_PERICENTER":144.2419,"MEAN_ANOMALY":217.2835,"EPHEMERIS_TYPE":0,"CLASSIFICATION_TYPE":"U","NORAD_CAT_ID":68412,"ELEMENT_SET_NO":999,"REV_AT_EPOCH":22,"BSTAR":0.00049493725,"MEAN_MOTION_DOT":0.0002782,"MEAN_MOTION_DDOT":0},{"OBJECT_NAME":"2026-066B","OBJECT_ID":"2026-066B","EPOCH":"2026-03-31T18:24:33.055200","MEAN_MOTION":15.04815352,"ECCENTRICITY":0.06052317,"INCLINATION":84.7161,"RA_OF_ASC_NODE":277.02,"ARG_OF_PERICENTER":206.6432,"MEAN_ANOMALY":150.2503,"EPHEMERIS_TYPE":0,"CLASSIFICATION_TYPE":"U","NORAD_CAT_ID":68413,"ELEMENT_SET_NO":999,"REV_AT_EPOCH":20,"BSTAR":0.00021174642,"MEAN_MOTION_DOT":0.02524605,"MEAN_MOTION_DDOT":-1.158743e-6}]
